{
  "type": "FeatureCollection",
  "name": "MS_Wetlands",
  "features": [
    {
      "type": "Feature",
      "properties": {
        "ATTRIBUTE": "R4SBC",
        "WETLAND_TYPE": "Riverine",
        "QAQC_CODE": null,
        "ACRES": 0.3039235416295558,
        "NWI_ID": "202409CSw{F6D047C8-05AB-4650-B524-4A4B64BB317C}_01"
      },
      "geometry": {
        "type": "MultiPolygon",
        "coordinates": [
          [
            [
              [
                673918.5844999999,
                1250462.7363999998
              ],
              [
                673918.6570000015,
                1250462.7558000004
              ],
              [
                673918.5665999986,
                1250463.0033
              ],
              [
                673917.4970000014,
                1250468.7177999998
              ],
              [
                673864.5194000006,
                1250470.9968999997
              ],
              [
                673849.1589000002,
                1250473.9557999996
              ],
              [
                673833.6768999994,
                1250482.0488
              ],
              [
                673813.3658999987,
                1250507.4989
              ],
              [
                673795.2912999988,
                1250538.5643999996
              ],
              [
                673795.1402999982,
                1250538.7983
              ],
              [
                673774.7294000015,
                1250567.4000000004
              ],
              [
                673774.5854999982,
                1250567.5857999995
              ],
              [
                673774.1975000016,
                1250567.9705999997
              ],
              [
                673765.8291999996,
                1250574.7703
              ],
              [
                673760.9679999985,
                1250571.113
              ],
              [
                673761.191399999,
                1250570.8399999999
              ],
              [
                673761.4488999993,
                1250570.5987999998
              ],
              [
                673770.0808000006,
                1250563.5848000003
              ],
              [
                673790.1759000011,
                1250535.4255999997
              ],
              [
                673808.2908000015,
                1250504.2909000004
              ],
              [
                673808.5388999991,
                1250503.9283999996
              ],
              [
                673829.3819000013,
                1250477.8115999997
              ],
              [
                673829.6627000012,
                1250477.5055999998
              ],
              [
                673829.9831000008,
                1250477.2413999997
              ],
              [
                673830.3368999995,
                1250477.0241
              ],
              [
                673846.7688999996,
                1250468.4345000004
              ],
              [
                673847.1327,
                1250468.2741999999
              ],
              [
                673847.5912999995,
                1250468.1475
              ],
              [
                673863.6251999997,
                1250465.0592
              ],
              [
                673864.0405000001,
                1250465.012
              ],
              [
                673917.934700001,
                1250462.6935999999
              ],
              [
                673918.0636,
                1250462.6908
              ],
              [
                673918.5844999999,
                1250462.7363999998
              ]
            ]
          ]
        ]
      }
    },
    {
      "type": "Feature",
      "properties": {
        "ATTRIBUTE": "R5UBH",
        "WETLAND_TYPE": "Riverine",
        "QAQC_CODE": null,
        "ACRES": 0.05661392076120177,
        "NWI_ID": "202409CSw{9B13DC30-AD4A-42F0-88AC-0A6D963D223B}_01"
      },
      "geometry": {
        "type": "MultiPolygon",
        "coordinates": [
          [
            [
              [
                674025.4111000001,
                1250459.8187999995
              ],
              [
                674025.9829999991,
                1250459.9655
              ],
              [
                674026.5256000012,
                1250460.1979999999
              ],
              [
                674027.0263999999,
                1250460.5105999997
              ],
              [
                674027.2985999994,
                1250460.7127999999
              ],
              [
                674027.5425000004,
                1250460.9484
              ],
              [
                674027.7769000009,
                1250461.1941
              ],
              [
                674027.9776999988,
                1250461.4677999998
              ],
              [
                674028.1669000015,
                1250461.7495
              ],
              [
                674028.3183999993,
                1250462.0531000001
              ],
              [
                674028.4574999996,
                1250462.3635999998
              ],
              [
                674028.5555999987,
                1250462.6893999996
              ],
              [
                674028.6400000006,
                1250463.0186
              ],
              [
                674028.6812999994,
                1250463.3558
              ],
              [
                674028.7085999995,
                1250463.6947999997
              ],
              [
                674028.6922000013,
                1250464.0346999997
              ],
              [
                674028.5876999982,
                1250464.7056
              ],
              [
                674028.4998000003,
                1250465.0340999998
              ],
              [
                674028.3707999997,
                1250465.3487999998
              ],
              [
                674028.1719999984,
                1250465.7566
              ],
              [
                674027.9230999984,
                1250466.1358000003
              ],
              [
                674027.6279999986,
                1250466.4803
              ],
              [
                674027.1563000008,
                1250466.9134
              ],
              [
                674026.6213999987,
                1250467.2655999996
              ],
              [
                674026.0372000001,
                1250467.5278000003
              ],
              [
                674025.4186000004,
                1250467.6930999998
              ],
              [
                674024.7813999988,
                1250467.7575000003
              ],
              [
                674007.6702000014,
                1250468.0346999997
              ],
              [
                674005.9230999984,
                1250466.8913000003
              ],
              [
                674001.9979999997,
                1250465.3843999999
              ],
              [
                673997.0412999988,
                1250464.0407999996
              ],
              [
                673993.7069000006,
                1250463.4089000002
              ],
              [
                673993.8949999996,
                1250462.7593999999
              ],
              [
                673994.190200001,
                1250462.1508999998
              ],
              [
                673994.5835999995,
                1250461.6009
              ],
              [
                673995.064100001,
                1250461.1253000004
              ],
              [
                673995.6180000007,
                1250460.7373000002
              ],
              [
                673996.2294000015,
                1250460.4484
              ],
              [
                673996.8808000013,
                1250460.2669000002
              ],
              [
                673997.5533999987,
                1250460.1977000004
              ],
              [
                674024.6842,
                1250459.7582999999
              ],
              [
                674025.4111000001,
                1250459.8187999995
              ]
            ]
          ]
        ]
      }
    },
    {
      "type": "Feature",
      "properties": {
        "ATTRIBUTE": "PFO1Ax",
        "WETLAND_TYPE": "Freshwater Forested/Shrub Wetland",
        "QAQC_CODE": null,
        "ACRES": 6.315588905983615,
        "NWI_ID": "202409CSw{9FAF7886-84D7-48EE-9A2A-42CC66B41B34}_01"
      },
      "geometry": {
        "type": "MultiPolygon",
        "coordinates": [
          [
            [
              [
                673102.3916000016,
                1251552.222
              ],
              [
                673102.0549999997,
                1251552.5855999999
              ],
              [
                673101.6631000005,
                1251552.8888999997
              ],
              [
                673101.2267000005,
                1251553.1235999996
              ],
              [
                673100.7577,
                1251553.2830999997
              ],
              [
                673100.2688000016,
                1251553.3634000001
              ],
              [
                673099.7732999995,
                1251553.3619999997
              ],
              [
                673099.2848000005,
                1251553.2791999998
              ],
              [
                673098.8165999986,
                1251553.1169999996
              ],
              [
                673098.3816,
                1251552.88
              ],
              [
                673097.9913999997,
                1251552.5745
              ],
              [
                673097.6567000002,
                1251552.2092000004
              ],
              [
                673097.3869000003,
                1251551.7936000004
              ],
              [
                673097.189100001,
                1251551.3394
              ],
              [
                673097.0687999986,
                1251550.8587999996
              ],
              [
                673097.0291999988,
                1251550.3647999996
              ],
              [
                673097.0716000013,
                1251549.8711
              ],
              [
                673097.1944999993,
                1251549.3910999997
              ],
              [
                673097.3946999982,
                1251548.938
              ],
              [
                673097.6669000015,
                1251548.5239000004
              ],
              [
                673127.4094000012,
                1251510.5250000004
              ],
              [
                673127.7531000003,
                1251510.1547999997
              ],
              [
                673128.1541000009,
                1251509.8476999998
              ],
              [
                673128.6009000018,
                1251509.6119999997
              ],
              [
                673129.0808999985,
                1251509.4546999997
              ],
              [
                673129.5806000009,
                1251509.3801999995
              ],
              [
                673130.0855999999,
                1251509.3904999997
              ],
              [
                673195.0247999988,
                1251516.2233999996
              ],
              [
                673246.2358000018,
                1251500.0608
              ],
              [
                673267.9116999991,
                1251429.6233
              ],
              [
                673264.6088000014,
                1251348.8288000003
              ],
              [
                673264.061900001,
                1251335.4528
              ],
              [
                673263.7941999994,
                1251328.9066000003
              ],
              [
                673249.4726999998,
                1251231.4730000002
              ],
              [
                673248.7452999987,
                1251226.5252
              ],
              [
                673248.7137999982,
                1251226.1183000002
              ],
              [
                673248.7373000011,
                1251225.7109000003
              ],
              [
                673248.8161000013,
                1251225.3106000004
              ],
              [
                673260.7406000011,
                1251180.9167
              ],
              [
                673284.9538999982,
                1251090.7728000004
              ],
              [
                673285.1026999988,
                1251090.3488999996
              ],
              [
                673285.313000001,
                1251089.9518999998
              ],
              [
                673285.5802999996,
                1251089.5908000004
              ],
              [
                673285.8984000012,
                1251089.2736
              ],
              [
                673286.2604999989,
                1251089.0075000003
              ],
              [
                673286.6581000015,
                1251088.7986000003
              ],
              [
                673287.0826999992,
                1251088.6513
              ],
              [
                673347.1317000017,
                1251072.7369
              ],
              [
                673381.4673000015,
                1251047.7170000002
              ],
              [
                673383.5177000016,
                1251028.0761000002
              ],
              [
                673365.5113000013,
                1251005.5055
              ],
              [
                673310.3506000005,
                1250998.7638999997
              ],
              [
                673309.9252000004,
                1250998.6804999998
              ],
              [
                673309.5163000003,
                1250998.5363999996
              ],
              [
                673309.1323000006,
                1250998.335
              ],
              [
                673308.7815999985,
                1250998.0805000002
              ],
              [
                673308.4710999988,
                1250997.7778000003
              ],
              [
                673283.7793999985,
                1250969.9655
              ],
              [
                673283.5208999999,
                1250969.6292000003
              ],
              [
                673283.3123000003,
                1250969.2597000003
              ],
              [
                673283.1581000015,
                1250968.8646999998
              ],
              [
                673283.0610999987,
                1250968.4517
              ],
              [
                673283.0232999995,
                1250968.0291999998
              ],
              [
                673282.4690999985,
                1250938.0319999997
              ],
              [
                673282.6730000004,
                1250936.9162999997
              ],
              [
                673306.4989,
                1250875.6926999995
              ],
              [
                673252.7738999985,
                1250866.5700000003
              ],
              [
                673215.7036000006,
                1250873.7334000003
              ],
              [
                673215.1583999991,
                1250873.7834
              ],
              [
                673214.6671999991,
                1250873.7429999998
              ],
              [
                673153.1202999987,
                1250863.5269
              ],
              [
                673152.6002999991,
                1250863.3888999997
              ],
              [
                673152.2857999988,
                1250863.2536000004
              ],
              [
                673081.9186000004,
                1250828.1031
              ],
              [
                673081.5089000016,
                1250827.8543999996
              ],
              [
                673081.1442000009,
                1250827.5436000004
              ],
              [
                673080.8337000012,
                1250827.1783999996
              ],
              [
                673080.5854999982,
                1250826.7686
              ],
              [
                673080.4057999998,
                1250826.3241999997
              ],
              [
                673080.2991999984,
                1250825.8569999998
              ],
              [
                673080.2685999982,
                1250825.3788
              ],
              [
                673080.3147,
                1250824.9017000003
              ],
              [
                673080.4404999986,
                1250824.4222999997
              ],
              [
                673080.6438000016,
                1250823.9702000003
              ],
              [
                673080.9188000001,
                1250823.5577999996
              ],
              [
                673081.2582999989,
                1250823.1966000004
              ],
              [
                673081.6526999995,
                1250822.8964
              ],
              [
                673082.0912999995,
                1250822.6655000001
              ],
              [
                673082.561900001,
                1250822.5102000004
              ],
              [
                673083.0518999994,
                1250822.4347
              ],
              [
                673083.5474999994,
                1250822.4411000004
              ],
              [
                673084.0351999998,
                1250822.5294000003
              ],
              [
                673084.501699999,
                1250822.6968999999
              ],
              [
                673084.5998000018,
                1250822.7356000002
              ],
              [
                673154.563000001,
                1250857.6842
              ],
              [
                673215.1184,
                1250867.7358
              ],
              [
                673252.1944000013,
                1250860.5713999998
              ],
              [
                673252.7393999994,
                1250860.5213000001
              ],
              [
                673253.2415999994,
                1250860.5636
              ],
              [
                673307.9778000005,
                1250869.858
              ],
              [
                673312.1594000012,
                1250829.7999999998
              ],
              [
                673280.6543999985,
                1250786.2153000003
              ],
              [
                673280.4741000012,
                1250785.9338999996
              ],
              [
                673261.5659000017,
                1250751.7490999997
              ],
              [
                673261.3663000017,
                1250751.3016999997
              ],
              [
                673261.2421999983,
                1250750.8278
              ],
              [
                673261.1970000006,
                1250750.3398000002
              ],
              [
                673261.2320000008,
                1250749.8513000002
              ],
              [
                673261.3399999999,
                1250749.3859
              ],
              [
                673261.5205999985,
                1250748.9437999995
              ],
              [
                673261.7690999992,
                1250748.5358999996
              ],
              [
                673262.0791999996,
                1250748.1727
              ],
              [
                673262.4433000013,
                1250747.8634000001
              ],
              [
                673262.8517000005,
                1250747.6158999996
              ],
              [
                673263.2943999991,
                1250747.4364
              ],
              [
                673263.7597999983,
                1250747.3295
              ],
              [
                673264.2366000004,
                1250747.2980000004
              ],
              [
                673264.7120000012,
                1250747.3427
              ],
              [
                673265.1105999984,
                1250747.4430999998
              ],
              [
                673265.4915999994,
                1250747.5971999997
              ],
              [
                673265.8480000012,
                1250747.8019000003
              ],
              [
                673266.1730000004,
                1250748.0533999996
              ],
              [
                673266.5197999999,
                1250748.4108999996
              ],
              [
                673266.8027999997,
                1250748.8211000003
              ],
              [
                673285.6231000014,
                1250782.8472999996
              ],
              [
                673317.6933999993,
                1250827.2138999999
              ],
              [
                673317.9233000018,
                1250827.5862999996
              ],
              [
                673318.0964000002,
                1250827.9880999997
              ],
              [
                673318.2091999985,
                1250828.4107999997
              ],
              [
                673318.2595000006,
                1250828.8454999998
              ],
              [
                673318.2459000014,
                1250829.2828000002
              ],
              [
                673313.9461000003,
                1250870.4726999998
              ],
              [
                673365.7608000003,
                1250872.4038000004
              ],
              [
                673365.9629999995,
                1250872.4181000004
              ],
              [
                673431.0282999985,
                1250879.2643999998
              ],
              [
                673507.5973000005,
                1250861.8075
              ],
              [
                673507.8114,
                1250825.2269000001
              ],
              [
                673507.8154999986,
                1250825.0877999999
              ],
              [
                673518.8938999996,
                1250613.1480999999
              ],
              [
                673525.9924999997,
                1250438.2479999997
              ],
              [
                673528.256099999,
                1250382.4511000002
              ],
              [
                673519.0863999985,
                1250082.6825
              ],
              [
                673469.2914000005,
                1249784.1117000002
              ],
              [
                673428.2648000009,
                1249506.8178000003
              ],
              [
                673390.4978,
                1249233.6338
              ],
              [
                673390.4734000005,
                1249233.3770000003
              ],
              [
                673381.9638999999,
                1249067.9548000004
              ],
              [
                673375.9375,
                1248914.0108000003
              ],
              [
                673375.9351999983,
                1248913.8934000004
              ],
              [
                673375.9514000006,
                1248913.5820000004
              ],
              [
                673383.249499999,
                1248843.6720000003
              ],
              [
                673372.4255000018,
                1248762.6966000004
              ],
              [
                673371.9952999987,
                1248759.4787999997
              ],
              [
                673371.9708999991,
                1248758.9677
              ],
              [
                673372.0339000002,
                1248758.46
              ],
              [
                673372.1821000017,
                1248757.9703000002
              ],
              [
                673372.4114000015,
                1248757.5130000003
              ],
              [
                673372.7151999995,
                1248757.1010999996
              ],
              [
                673373.0843999982,
                1248756.7470000004
              ],
              [
                673373.5084000006,
                1248756.4607999995
              ],
              [
                673373.9748000018,
                1248756.2506
              ],
              [
                673374.4703000002,
                1248756.1229999997
              ],
              [
                673374.9803000018,
                1248756.0812999997
              ],
              [
                673375.4897999987,
                1248756.1268999996
              ],
              [
                673375.9455999993,
                1248756.2446999997
              ],
              [
                673376.3775000013,
                1248756.4325
              ],
              [
                673376.7745000012,
                1248756.6854999997
              ],
              [
                673377.1272,
                1248756.9974999996
              ],
              [
                673377.4338000007,
                1248757.3667000001
              ],
              [
                673377.682,
                1248757.7774999999
              ],
              [
                673377.8456000015,
                1248758.2210999997
              ],
              [
                673377.942499999,
                1248758.6837999998
              ],
              [
                673378.6810999997,
                1248764.2089
              ],
              [
                673389.243900001,
                1248843.2306000004
              ],
              [
                673389.2703000009,
                1248843.6281000003
              ],
              [
                673389.2540999986,
                1248843.9395000003
              ],
              [
                673381.941300001,
                1248913.9911000002
              ],
              [
                673387.9572999999,
                1249067.6752000004
              ],
              [
                673396.4591000006,
                1249232.9408
              ],
              [
                673434.2045000009,
                1249505.9694999997
              ],
              [
                673475.2184000015,
                1249783.1797000002
              ],
              [
                673525.0377999991,
                1250081.8953
              ],
              [
                673525.0773000009,
                1250082.2972
              ],
              [
                673534.2566,
                1250382.3740999997
              ],
              [
                673534.2580000013,
                1250382.4658000004
              ],
              [
                673534.2555,
                1250382.5875000004
              ],
              [
                673532.1064000018,
                1250435.5438
              ],
              [
                673635.4686000012,
                1250440.8936
              ],
              [
                673635.6275000013,
                1250440.9058999997
              ],
              [
                673675.6928000003,
                1250445.1217
              ],
              [
                673676.1884000003,
                1250445.2166
              ],
              [
                673676.6611000001,
                1250445.3931
              ],
              [
                673677.0975000001,
                1250445.6464
              ],
              [
                673677.4853000008,
                1250445.9692000002
              ],
              [
                673677.8134000003,
                1250446.3525
              ],
              [
                673678.0727999993,
                1250446.7852999996
              ],
              [
                673720.3302000016,
                1250533.023
              ],
              [
                673760.0443999991,
                1250570.4181000004
              ],
              [
                673760.9679999985,
                1250571.113
              ],
              [
                673765.8291999996,
                1250574.7703
              ],
              [
                673835.0230999999,
                1250626.8279999997
              ],
              [
                673835.1193999983,
                1250626.9035999998
              ],
              [
                673885.1605999991,
                1250667.8514
              ],
              [
                673885.501699999,
                1250668.1847
              ],
              [
                673885.7855999991,
                1250668.568
              ],
              [
                673886.004999999,
                1250668.9913999997
              ],
              [
                673886.1543999985,
                1250669.4444000004
              ],
              [
                673886.2322000004,
                1250669.9022000004
              ],
              [
                673886.2386000007,
                1250670.3666000003
              ],
              [
                673886.1733000018,
                1250670.8263999997
              ],
              [
                673886.0381000005,
                1250671.2706000004
              ],
              [
                673885.8361000009,
                1250671.6889000004
              ],
              [
                673885.5720000006,
                1250672.0708999997
              ],
              [
                673885.2452999987,
                1250672.4105000002
              ],
              [
                673884.8695,
                1250672.6946999999
              ],
              [
                673884.4538999982,
                1250672.9166
              ],
              [
                673884.0086000003,
                1250673.0705000004
              ],
              [
                673883.5447000004,
                1250673.153
              ],
              [
                673883.0736000016,
                1250673.1617
              ],
              [
                673882.6070000008,
                1250673.0965999998
              ],
              [
                673882.1563000008,
                1250672.9592000004
              ],
              [
                673881.7327000014,
                1250672.7529999996
              ],
              [
                673881.3465999998,
                1250672.483
              ],
              [
                673831.3684,
                1250631.5869000005
              ],
              [
                673756.3055000007,
                1250575.1138000004
              ],
              [
                673756.1805999987,
                1250575.0144999996
              ],
              [
                673756.0524999984,
                1250574.9005000005
              ],
              [
                673715.8198000006,
                1250537.017
              ],
              [
                673715.5731000006,
                1250536.7553000003
              ],
              [
                673715.3597000018,
                1250536.4659000002
              ],
              [
                673715.182500001,
                1250536.153
              ],
              [
                673673.4151999988,
                1250450.9153000005
              ],
              [
                673635.0766999982,
                1250446.8812999995
              ],
              [
                673531.8630999997,
                1250441.5392000005
              ],
              [
                673524.8872000016,
                1250613.4313000003
              ],
              [
                673513.810899999,
                1250825.3309000004
              ],
              [
                673513.5819999985,
                1250864.0549999997
              ],
              [
                673513.5707999989,
                1250864.5777000003
              ],
              [
                673513.374400001,
                1250899.9940999998
              ],
              [
                673513.3707999997,
                1250900.1245
              ],
              [
                673510.0634000003,
                1250967.0772000002
              ],
              [
                673510.0527999997,
                1250967.2214000002
              ],
              [
                673504.4155000001,
                1251024.8256
              ],
              [
                673504.3874999993,
                1251025.1116000004
              ],
              [
                673504.2958000004,
                1251025.6094000004
              ],
              [
                673504.1215999983,
                1251026.0844999999
              ],
              [
                673503.8696999997,
                1251026.5237999996
              ],
              [
                673503.5474999994,
                1251026.9140999997
              ],
              [
                673503.1640999988,
                1251027.2446999997
              ],
              [
                673502.7305999994,
                1251027.5059000002
              ],
              [
                673502.2591999993,
                1251027.6904999996
              ],
              [
                673501.7635999992,
                1251027.7928
              ],
              [
                673501.2577,
                1251027.8103
              ],
              [
                673500.756099999,
                1251027.7424999997
              ],
              [
                673500.2730999999,
                1251027.5909000002
              ],
              [
                673499.8225000016,
                1251027.3602999998
              ],
              [
                673499.4171999991,
                1251027.057
              ],
              [
                673499.0687999986,
                1251026.6897999998
              ],
              [
                673498.7872000001,
                1251026.2692
              ],
              [
                673498.5804999992,
                1251025.8071999997
              ],
              [
                673498.4545000009,
                1251025.3169999998
              ],
              [
                673498.4129999988,
                1251024.8125
              ],
              [
                673498.4158999994,
                1251024.5272000004
              ],
              [
                673504.0742000006,
                1250966.7092000004
              ],
              [
                673507.3746999986,
                1250899.8936
              ],
              [
                673507.5612999983,
                1250867.9698
              ],
              [
                673431.8764000013,
                1250885.2249999996
              ],
              [
                673431.3883999996,
                1250885.2947000004
              ],
              [
                673430.8955999985,
                1250885.2835999997
              ],
              [
                673365.435800001,
                1250878.3959
              ],
              [
                673312.6508000009,
                1250876.4283999996
              ],
              [
                673288.4792000018,
                1250938.5405000001
              ],
              [
                673289.0018999986,
                1250966.8106000004
              ],
              [
                673312.2047000006,
                1250992.9458999997
              ],
              [
                673367.4558999985,
                1250999.6985999998
              ],
              [
                673367.9116999991,
                1250999.7906
              ],
              [
                673368.3480000012,
                1250999.9518999998
              ],
              [
                673368.753899999,
                1251000.1787999999
              ],
              [
                673369.1198000014,
                1251000.4655
              ],
              [
                673369.4371999986,
                1251000.8054999998
              ],
              [
                673388.9741999991,
                1251025.2944999998
              ],
              [
                673389.2355999984,
                1251025.6803000001
              ],
              [
                673389.4340999983,
                1251026.1019000001
              ],
              [
                673389.5650000013,
                1251026.5491000004
              ],
              [
                673389.625,
                1251027.0113000004
              ],
              [
                673389.6127999984,
                1251027.477
              ],
              [
                673387.2963000014,
                1251049.6672
              ],
              [
                673387.2027000003,
                1251050.1600000001
              ],
              [
                673387.0282999985,
                1251050.6303000003
              ],
              [
                673386.7778000012,
                1251051.0650000004
              ],
              [
                673386.4585999995,
                1251051.4518999998
              ],
              [
                673386.0791999996,
                1251051.7802
              ],
              [
                673350.2104999982,
                1251077.9172
              ],
              [
                673349.8982999995,
                1251078.1163999997
              ],
              [
                673349.5639000013,
                1251078.2758
              ],
              [
                673349.2122999988,
                1251078.3925
              ],
              [
                673290.2983000018,
                1251094.0060999999
              ],
              [
                673254.7718999982,
                1251226.2673000004
              ],
              [
                673269.7534000017,
                1251328.1900000004
              ],
              [
                673269.7828000002,
                1251328.5038
              ],
              [
                673273.9277000017,
                1251429.8919000002
              ],
              [
                673273.9052000009,
                1251430.3997999998
              ],
              [
                673273.7974999994,
                1251430.8967000004
              ],
              [
                673251.5073000006,
                1251503.3302999996
              ],
              [
                673251.3288000003,
                1251503.7788000004
              ],
              [
                673251.0804999992,
                1251504.1928000003
              ],
              [
                673250.7688999996,
                1251504.5617000004
              ],
              [
                673250.4023000002,
                1251504.8757999996
              ],
              [
                673249.9902000017,
                1251505.1270000003
              ],
              [
                673249.5430000015,
                1251505.3088999996
              ],
              [
                673196.2349999994,
                1251522.1332999999
              ],
              [
                673195.8363000005,
                1251522.2297
              ],
              [
                673195.4281000011,
                1251522.2708
              ],
              [
                673195.0181000009,
                1251522.2559000002
              ],
              [
                673131.1099999994,
                1251515.5316000003
              ],
              [
                673102.3916000016,
                1251552.222
              ]
            ]
          ]
        ]
      }
    },
    {
      "type": "Feature",
      "properties": {
        "ATTRIBUTE": "PUBHh",
        "WETLAND_TYPE": "Freshwater Pond",
        "QAQC_CODE": null,
        "ACRES": 1.1847154665370894,
        "NWI_ID": "202409CSw{EDFE707B-73E6-4416-84B0-1812268E44F5}_01"
      },
      "geometry": {
        "type": "MultiPolygon",
        "coordinates": [
          [
            [
              [
                673936.9378000014,
                1250451.7758
              ],
              [
                673960.5104999989,
                1250455.8899999997
              ],
              [
                673976.6688000001,
                1250460.1799999997
              ],
              [
                673993.7069000006,
                1250463.4089000002
              ],
              [
                673997.0412999988,
                1250464.0407999996
              ],
              [
                674001.9979999997,
                1250465.3843999999
              ],
              [
                674005.9230999984,
                1250466.8913000003
              ],
              [
                674007.6702000014,
                1250468.0346999997
              ],
              [
                674008.2650000006,
                1250468.4241000004
              ],
              [
                674009.2732999995,
                1250469.5559
              ],
              [
                674010.7259000018,
                1250472.9345000004
              ],
              [
                674011.2994000018,
                1250477.7548000002
              ],
              [
                674010.561900001,
                1250486.1810999997
              ],
              [
                674008.6435999982,
                1250496.3175
              ],
              [
                674007.1420000009,
                1250502.9512999998
              ],
              [
                674006.1130999997,
                1250506.1188000003
              ],
              [
                674004.8830999993,
                1250508.6156000001
              ],
              [
                674003.318599999,
                1250510.7518999996
              ],
              [
                674001.8332999982,
                1250512.0569000002
              ],
              [
                673998.6305,
                1250513.5632999996
              ],
              [
                673993.9818999991,
                1250514.4106
              ],
              [
                673988.6026999988,
                1250514.443
              ],
              [
                673966.1154999994,
                1250511.8003000002
              ],
              [
                673956.185899999,
                1250510.1708000004
              ],
              [
                673939.6303000003,
                1250507.9977000002
              ],
              [
                673928.3286000006,
                1250506.9755999995
              ],
              [
                673924.9023000002,
                1250506.1491
              ],
              [
                673922.0833999999,
                1250504.7445
              ],
              [
                673919.8902999982,
                1250502.6135999998
              ],
              [
                673918.4180000015,
                1250499.5527
              ],
              [
                673917.3055000007,
                1250494.1692000004
              ],
              [
                673916.9730999991,
                1250489.8328
              ],
              [
                673916.9477000013,
                1250479.5175
              ],
              [
                673917.4765999988,
                1250468.8272000002
              ],
              [
                673917.4970000014,
                1250468.7177999998
              ],
              [
                673918.5665999986,
                1250463.0033
              ],
              [
                673918.6570000015,
                1250462.7558000004
              ],
              [
                673920.6944999993,
                1250457.1797000002
              ],
              [
                673923.0383000001,
                1250454.113
              ],
              [
                673924.7683000006,
                1250452.9130999995
              ],
              [
                673926.5436000004,
                1250452.1952
              ],
              [
                673931.4703000002,
                1250451.4211
              ],
              [
                673936.9378000014,
                1250451.7758
              ]
            ]
          ]
        ]
      }
    },
    {
      "type": "Feature",
      "properties": {
        "ATTRIBUTE": "PSS1A",
        "WETLAND_TYPE": "Freshwater Forested/Shrub Wetland",
        "QAQC_CODE": null,
        "ACRES": 7.3868840458825185,
        "NWI_ID": "202409CSw{3E04351F-103F-47BF-A204-C090C2A80E90}_01"
      },
      "geometry": {
        "type": "MultiPolygon",
        "coordinates": [
          [
            [
              [
                673956.753800001,
                1250657.8717
              ],
              [
                673970.8218999989,
                1250659.4713000003
              ],
              [
                673991.1524999999,
                1250661.0355000002
              ],
              [
                674019.7644999996,
                1250665.6042
              ],
              [
                674029.4312999994,
                1250667.4749999996
              ],
              [
                674043.3836000003,
                1250670.8819000004
              ],
              [
                674067.9853000008,
                1250677.5177999996
              ],
              [
                674073.8702999987,
                1250679.6298000002
              ],
              [
                674078.8227999993,
                1250682.1119999997
              ],
              [
                674085.2406000011,
                1250686.2144999998
              ],
              [
                674093.4050000012,
                1250692.1161000002
              ],
              [
                674105.253899999,
                1250701.0398000004
              ],
              [
                674115.0045000017,
                1250709.3077999996
              ],
              [
                674122.5403000005,
                1250716.5615999997
              ],
              [
                674134.1427000016,
                1250729.1668999996
              ],
              [
                674137.7652000003,
                1250734.0603
              ],
              [
                674148.006099999,
                1250749.7068999996
              ],
              [
                674170.5296999998,
                1250780.6860999996
              ],
              [
                674173.7674999982,
                1250786.102
              ],
              [
                674181.8726999983,
                1250801.8152
              ],
              [
                674184.6176999994,
                1250807.5553000001
              ],
              [
                674187.0876999982,
                1250814.4490999999
              ],
              [
                674193.0969000012,
                1250834.1028000005
              ],
              [
                674199.2875000015,
                1250858.2795000002
              ],
              [
                674204.9624999985,
                1250875.4856000002
              ],
              [
                674206.6088999994,
                1250881.5317000002
              ],
              [
                674207.4613000005,
                1250887.6875
              ],
              [
                674207.4285999984,
                1250897.0913000004
              ],
              [
                674206.1380000003,
                1250903.7374999998
              ],
              [
                674203.8366999999,
                1250907.8921999997
              ],
              [
                674201.7305000015,
                1250909.8608
              ],
              [
                674199.9105999991,
                1250911.0269999998
              ],
              [
                674196.7677999996,
                1250912.3183000004
              ],
              [
                674193.3308999985,
                1250913.1080999998
              ],
              [
                674186.9367000014,
                1250913.3216000004
              ],
              [
                674176.2597000003,
                1250912.0480000004
              ],
              [
                674169.7347999997,
                1250910.4570000004
              ],
              [
                674162.7655000016,
                1250907.7088000001
              ],
              [
                674153.5971999988,
                1250902.693
              ],
              [
                674146.0331000015,
                1250897.6494000005
              ],
              [
                674139.5194999985,
                1250892.4272999996
              ],
              [
                674132.1123000011,
                1250885.4044000003
              ],
              [
                674128.2507999986,
                1250881.1727999998
              ],
              [
                674125.4338999987,
                1250877.1128000002
              ],
              [
                674121.4444999993,
                1250869.4406000003
              ],
              [
                674115.6950000003,
                1250852.2451999998
              ],
              [
                674110.2815999985,
                1250838.0565999998
              ],
              [
                674107.0284000002,
                1250830.8611000003
              ],
              [
                674094.3269999996,
                1250809.5603
              ],
              [
                674091.3280999996,
                1250805.6672
              ],
              [
                674088.3176999986,
                1250802.7481000004
              ],
              [
                674084.0892000012,
                1250799.3893999998
              ],
              [
                674062.3440999985,
                1250784.1177000003
              ],
              [
                674057.0626999997,
                1250781.4219000004
              ],
              [
                674045.3808999993,
                1250776.4023000002
              ],
              [
                674037.1810999997,
                1250772.2883000001
              ],
              [
                674022.5667000003,
                1250763.6305
              ],
              [
                674009.9651999995,
                1250757.2691000002
              ],
              [
                673992.1156000011,
                1250745.9494000003
              ],
              [
                673974.25,
                1250735.5241
              ],
              [
                673960.5,
                1250726.5308999997
              ],
              [
                673938.6185999997,
                1250713.0427
              ],
              [
                673925.9375,
                1250704.2479999997
              ],
              [
                673907.2091000006,
                1250689.2105
              ],
              [
                673898.1673000008,
                1250682.3798000002
              ],
              [
                673885.5720000006,
                1250672.0708999997
              ],
              [
                673885.8361000009,
                1250671.6889000004
              ],
              [
                673886.0381000005,
                1250671.2706000004
              ],
              [
                673886.1733000018,
                1250670.8263999997
              ],
              [
                673886.2386000007,
                1250670.3666000003
              ],
              [
                673886.2322000004,
                1250669.9022000004
              ],
              [
                673886.1543999985,
                1250669.4444000004
              ],
              [
                673894.1444000006,
                1250667.4747000001
              ],
              [
                673906.5249999985,
                1250665.0077
              ],
              [
                673927.7652999982,
                1250660.0975000001
              ],
              [
                673935.7694000006,
                1250658.7936000004
              ],
              [
                673944.1239,
                1250657.8816
              ],
              [
                673948.5876999982,
                1250657.6558999997
              ],
              [
                673956.753800001,
                1250657.8717
              ]
            ]
          ]
        ]
      }
    }
  ]
}